{
  "type": "FeatureCollection",
  "features": [
    {
      "type": "Feature",
      "properties": {
        "norad_id": 26766,
        "name": "INTELSAT 10 (IS-10)",
        "group": "intelsat",
        "lat": -1.4531736258401502,
        "lon": 51.39170361713826,
        "alt_km": 36142.77121032691,
        "timestamp": "2025-12-21T14:40:47.578087+00:00",
        "meta_object_name": "INTELSAT 10 (IS-10)",
        "meta_object_id": "2001-019A",
        "meta_epoch": "2025-12-20T17:29:18.796128",
        "meta_mean_motion": 0.9907436,
        "meta_eccentricity": 0.00077475,
        "meta_inclination": 8.6473,
        "meta_ra_of_asc_node": 61.0766,
        "meta_arg_of_pericenter": 228.8053,
        "meta_mean_anomaly": 166.3968,
        "meta_ephemeris_type": 0,
        "meta_classification_type": "U",
        "meta_norad_cat_id": 26766,
        "meta_element_set_no": 999,
        "meta_rev_at_epoch": 4381,
        "meta_bstar": 0,
        "meta_mean_motion_dot": -1.02e-06,
        "meta_mean_motion_ddot": 0,
        "tle_line1": "1 26766U 01019A   25354.72868977 -.00000102  00000+0  00000+0 0  9993",
        "tle_line2": "2 26766   8.6473  61.0766 0007747 228.8053 166.3968  0.99074360 43819"
      },
      "geometry": {
        "type": "Point",
        "coordinates": [
          51.39170361713826,
          -1.4531736258401502
        ]
      }
    },
    {
      "type": "Feature",
      "properties": {
        "norad_id": 26900,
        "name": "INTELSAT 902 (IS-902)",
        "group": "intelsat",
        "lat": -0.665084615366338,
        "lon": -99.55883793583797,
        "alt_km": 35768.043981159804,
        "timestamp": "2025-12-21T14:40:47.578111+00:00",
        "meta_object_name": "INTELSAT 902 (IS-902)",
        "meta_object_id": "2001-039A",
        "meta_epoch": "2025-12-15T13:09:02.081664",
        "meta_mean_motion": 1.0027087,
        "meta_eccentricity": 0.00045028,
        "meta_inclination": 5.6536,
        "meta_ra_of_asc_node": 74.0372,
        "meta_arg_of_pericenter": 189.6359,
        "meta_mean_anomaly": 327.9329,
        "meta_ephemeris_type": 0,
        "meta_classification_type": "U",
        "meta_norad_cat_id": 26900,
        "meta_element_set_no": 999,
        "meta_rev_at_epoch": 8885,
        "meta_bstar": 0,
        "meta_mean_motion_dot": -2.65e-06,
        "meta_mean_motion_ddot": 0,
        "tle_line1": "1 26900U 01039A   25349.54794076 -.00000265  00000+0  00000+0 0  9997",
        "tle_line2": "2 26900   5.6536  74.0372 0004502 189.6359 327.9329  1.00270870 88858"
      },
      "geometry": {
        "type": "Point",
        "coordinates": [
          -99.55883793583797,
          -0.665084615366338
        ]
      }
    },
    {
      "type": "Feature",
      "properties": {
        "norad_id": 27380,
        "name": "INTELSAT 904 (IS-904)",
        "group": "intelsat",
        "lat": -3.037365920746613,
        "lon": -81.04587237882986,
        "alt_km": 35780.92101265679,
        "timestamp": "2025-12-21T14:40:47.578127+00:00",
        "meta_object_name": "INTELSAT 904 (IS-904)",
        "meta_object_id": "2002-007A",
        "meta_epoch": "2025-12-21T02:46:31.545696",
        "meta_mean_motion": 1.00270749,
        "meta_eccentricity": 0.00018549,
        "meta_inclination": 6.4742,
        "meta_ra_of_asc_node": 71.3362,
        "meta_arg_of_pericenter": 249.0229,
        "meta_mean_anomaly": 139.7067,
        "meta_ephemeris_type": 0,
        "meta_classification_type": "U",
        "meta_norad_cat_id": 27380,
        "meta_element_set_no": 999,
        "meta_rev_at_epoch": 4998,
        "meta_bstar": 0,
        "meta_mean_motion_dot": -2.07e-06,
        "meta_mean_motion_ddot": 0,
        "tle_line1": "1 27380U 02007A   25355.11564289 -.00000207  00000+0  00000+0 0  9993",
        "tle_line2": "2 27380   6.4742  71.3362 0001854 249.0229 139.7067  1.00270749 49986"
      },
      "geometry": {
        "type": "Point",
        "coordinates": [
          -81.04587237882986,
          -3.037365920746613
        ]
      }
    },
    {
      "type": "Feature",
      "properties": {
        "norad_id": 27426,
        "name": "DIRECTV 5 (TEMPO 1)",
        "group": "intelsat",
        "lat": 3.7077239283607066,
        "lon": -159.45066112216836,
        "alt_km": 35782.39665145771,
        "timestamp": "2025-12-21T14:40:47.578141+00:00",
        "meta_object_name": "DIRECTV 5 (TEMPO 1)",
        "meta_object_id": "2002-023A",
        "meta_epoch": "2025-12-21T07:19:55.299360",
        "meta_mean_motion": 1.00271777,
        "meta_eccentricity": 0.00031368,
        "meta_inclination": 4.4225,
        "meta_ra_of_asc_node": 77.5526,
        "meta_arg_of_pericenter": 199.0334,
        "meta_mean_anomaly": 173.4018,
        "meta_ephemeris_type": 0,
        "meta_classification_type": "U",
        "meta_norad_cat_id": 27426,
        "meta_element_set_no": 999,
        "meta_rev_at_epoch": 8634,
        "meta_bstar": 0,
        "meta_mean_motion_dot": -3.7e-07,
        "meta_mean_motion_ddot": 0,
        "tle_line1": "1 27426U 02023A   25355.30550115 -.00000037  00000+0  00000+0 0  9997",
        "tle_line2": "2 27426   4.4225  77.5526 0003136 199.0334 173.4018  1.00271777 86341"
      },
      "geometry": {
        "type": "Point",
        "coordinates": [
          -159.45066112216836,
          3.7077239283607066
        ]
      }
    },
    {
      "type": "Feature",
      "properties": {
        "norad_id": 27438,
        "name": "INTELSAT 905 (IS-905)",
        "group": "intelsat",
        "lat": 6.190346413111797,
        "lon": 173.4594997172428,
        "alt_km": 35787.36239264666,
        "timestamp": "2025-12-21T14:40:47.578154+00:00",
        "meta_object_name": "INTELSAT 905 (IS-905)",
        "meta_object_id": "2002-027A",
        "meta_epoch": "2025-12-21T06:10:26.730048",
        "meta_mean_motion": 1.0027273,
        "meta_eccentricity": 0.00026771,
        "meta_inclination": 6.3055,
        "meta_ra_of_asc_node": 71.958,
        "meta_arg_of_pericenter": 203.5903,
        "meta_mean_anomaly": 129.9356,
        "meta_ephemeris_type": 0,
        "meta_classification_type": "U",
        "meta_norad_cat_id": 27438,
        "meta_element_set_no": 999,
        "meta_rev_at_epoch": 4957,
        "meta_bstar": 0,
        "meta_mean_motion_dot": 1.12e-06,
        "meta_mean_motion_ddot": 0,
        "tle_line1": "1 27438U 02027A   25355.25725382  .00000112  00000+0  00000+0 0  9991",
        "tle_line2": "2 27438   6.3055  71.9580 0002677 203.5903 129.9356  1.00272730 49571"
      },
      "geometry": {
        "type": "Point",
        "coordinates": [
          173.4594997172428,
          6.190346413111797
        ]
      }
    },
    {
      "type": "Feature",
      "properties": {
        "norad_id": 27445,
        "name": "GALAXY 3C (G-3C)",
        "group": "intelsat",
        "lat": 2.294998570386842,
        "lon": -144.17481133486854,
        "alt_km": 35783.04592333196,
        "timestamp": "2025-12-21T14:40:47.578167+00:00",
        "meta_object_name": "GALAXY 3C (G-3C)",
        "meta_object_id": "2002-030A",
        "meta_epoch": "2025-12-21T06:33:13.647168",
        "meta_mean_motion": 1.00272056,
        "meta_eccentricity": 0.00011408,
        "meta_inclination": 3.2837,
        "meta_ra_of_asc_node": 80.417,
        "meta_arg_of_pericenter": 79.5681,
        "meta_mean_anomaly": 293.5595,
        "meta_ephemeris_type": 0,
        "meta_classification_type": "U",
        "meta_norad_cat_id": 27445,
        "meta_element_set_no": 999,
        "meta_rev_at_epoch": 4471,
        "meta_bstar": 0,
        "meta_mean_motion_dot": -1.32e-06,
        "meta_mean_motion_ddot": 0,
        "tle_line1": "1 27445U 02030A   25355.27307462 -.00000132  00000+0  00000+0 0  9993",
        "tle_line2": "2 27445   3.2837  80.4170 0001140  79.5681 293.5595  1.00272056 44716"
      },
      "geometry": {
        "type": "Point",
        "coordinates": [
          -144.17481133486854,
          2.294998570386842
        ]
      }
    },
    {
      "type": "Feature",
      "properties": {
        "norad_id": 27513,
        "name": "INTELSAT 906 (IS-906)",
        "group": "intelsat",
        "lat": -4.64657774893456,
        "lon": 14.939512417218879,
        "alt_km": 35791.03905586065,
        "timestamp": "2025-12-21T14:40:47.578179+00:00",
        "meta_object_name": "INTELSAT 906 (IS-906)",
        "meta_object_id": "2002-041A",
        "meta_epoch": "2025-12-21T04:56:34.091232",
        "meta_mean_motion": 1.00272969,
        "meta_eccentricity": 0.00063182,
        "meta_inclination": 5.3511,
        "meta_ra_of_asc_node": 75.1309,
        "meta_arg_of_pericenter": 199.595,
        "meta_mean_anomaly": 313.578,
        "meta_ephemeris_type": 0,
        "meta_classification_type": "U",
        "meta_norad_cat_id": 27513,
        "meta_element_set_no": 999,
        "meta_rev_at_epoch": 8524,
        "meta_bstar": 0,
        "meta_mean_motion_dot": 3.2e-07,
        "meta_mean_motion_ddot": 0,
        "tle_line1": "1 27513U 02041A   25355.20595013  .00000032  00000+0  00000+0 0  9993",
        "tle_line2": "2 27513   5.3511  75.1309 0006318 199.5950 313.5780  1.00272969 85248"
      },
      "geometry": {
        "type": "Point",
        "coordinates": [
          14.939512417218879,
          -4.64657774893456
        ]
      }
    }
  ]
}